[{"OBJECT_NAME":"IRIDIUM 151","OBJECT_ID":"2017-083E","EPOCH":"2026-03-28T18:49:47.202240","MEAN_MOTION":14.34218092,"ECCENTRICITY":0.00022235,"INCLINATION":86.4025,"RA_OF_ASC_NODE":355.6663,"ARG_OF_PERICENTER":85.3356,"MEAN_ANOMALY":274.8094,"EPHEMERIS_TYPE":0,"CLASSIFICATION_TYPE":"U","NORAD_CAT_ID":43074,"ELEMENT_SET_NO":999,"REV_AT_EPOCH":43261,"BSTAR":3.0083513e-5,"MEAN_MOTION_DOT":1.04e-6,"MEAN_MOTION_DDOT":0},{"OBJECT_NAME":"IRIDIUM 134","OBJECT_ID":"2017-083F","EPOCH":"2026-03-28T19:44:35.342592","MEAN_MOTION":14.34218001,"ECCENTRICITY":0.00021539,"INCLINATION":86.4027,"RA_OF_ASC_NODE":355.6573,"ARG_OF_PERICENTER":88.7469,"MEAN_ANOMALY":271.3974,"EPHEMERIS_TYPE":0,"CLASSIFICATION_TYPE":"U","NORAD_CAT_ID":43075,"ELEMENT_SET_NO":999,"REV_AT_EPOCH":43258,"BSTAR":9.8643338e-5,"MEAN_MOTION_DOT":2.96e-6,"MEAN_MOTION_DDOT":0},{"OBJECT_NAME":"IRIDIUM 137","OBJECT_ID":"2017-083G","EPOCH":"2026-03-28T20:02:51.719712","MEAN_MOTION":14.34216172,"ECCENTRICITY":0.00026631,"INCLINATION":86.4026,"RA_OF_ASC_NODE":355.7431,"ARG_OF_PERICENTER":84.6221,"MEAN_ANOMALY":275.5278,"EPHEMERIS_TYPE":0,"CLASSIFICATION_TYPE":"U","NORAD_CAT_ID":43076,"ELEMENT_SET_NO":999,"REV_AT_EPOCH":43265,"BSTAR":0.00010463749,"MEAN_MOTION_DOT":3.13e-6,"MEAN_MOTION_DDOT":0},{"OBJECT_NAME":"IRIDIUM 141","OBJECT_ID":"2017-083H","EPOCH":"2026-03-28T19:53:43.023552","MEAN_MOTION":14.34214786,"ECCENTRICITY":0.00021381,"INCLINATION":86.4023,"RA_OF_ASC_NODE":355.5809,"ARG_OF_PERICENTER":83.5792,"MEAN_ANOMALY":276.5647,"EPHEMERIS_TYPE":0,"CLASSIFICATION_TYPE":"U","NORAD_CAT_ID":43077,"ELEMENT_SET_NO":999,"REV_AT_EPOCH":43265,"BSTAR":0.00015155779,"MEAN_MOTION_DOT":4.44e-6,"MEAN_MOTION_DDOT":0},{"OBJECT_NAME":"IRIDIUM 153","OBJECT_ID":"2017-083J","EPOCH":"2026-03-28T22:05:47.347296","MEAN_MOTION":14.34218555,"ECCENTRICITY":0.00018626,"INCLINATION":86.398,"RA_OF_ASC_NODE":324.0502,"ARG_OF_PERICENTER":84.6605,"MEAN_ANOMALY":275.4803,"EPHEMERIS_TYPE":0,"CLASSIFICATION_TYPE":"U","NORAD_CAT_ID":43078,"ELEMENT_SET_NO":999,"REV_AT_EPOCH":43377,"BSTAR":6.7878528e-5,"MEAN_MOTION_DOT":2.1e-6,"MEAN_MOTION_DDOT":0},{"OBJECT_NAME":"IRIDIUM 131","OBJECT_ID":"2017-083K","EPOCH":"2026-03-28T19:35:27.096576","MEAN_MOTION":14.34219173,"ECCENTRICITY":0.0002181,"INCLINATION":86.4029,"RA_OF_ASC_NODE":355.7668,"ARG_OF_PERICENTER":82.2858,"MEAN_ANOMALY":277.8586,"EPHEMERIS_TYPE":0,"CLASSIFICATION_TYPE":"U","NORAD_CAT_ID":43079,"ELEMENT_SET_NO":999,"REV_AT_EPOCH":43258,"BSTAR":9.1597991e-5,"MEAN_MOTION_DOT":2.76e-6,"MEAN_MOTION_DDOT":0},{"OBJECT_NAME":"IRIDIUM 144","OBJECT_ID":"2018-030A","EPOCH":"2026-03-28T22:14:55.334976","MEAN_MOTION":14.34217527,"ECCENTRICITY":0.00022294,"INCLINATION":86.3978,"RA_OF_ASC_NODE":323.9787,"ARG_OF_PERICENTER":88.7953,"MEAN_ANOMALY":271.3498,"EPHEMERIS_TYPE":0,"CLASSIFICATION_TYPE":"U","NORAD_CAT_ID":43249,"ELEMENT_SET_NO":999,"REV_AT_EPOCH":41863,"BSTAR":7.5008269e-5,"MEAN_MOTION_DOT":2.3e-6,"MEAN_MOTION_DDOT":0},{"OBJECT_NAME":"IRIDIUM 149","OBJECT_ID":"2018-030B","EPOCH":"2026-03-28T22:24:03.174048","MEAN_MOTION":14.34220662,"ECCENTRICITY":0.00020784,"INCLINATION":86.3976,"RA_OF_ASC_NODE":323.944,"ARG_OF_PERICENTER":84.8013,"MEAN_ANOMALY":275.342,"EPHEMERIS_TYPE":0,"CLASSIFICATION_TYPE":"U","NORAD_CAT_ID":43250,"ELEMENT_SET_NO":999,"REV_AT_EPOCH":41865,"BSTAR":8.8080203e-5,"MEAN_MOTION_DOT":2.66e-6,"MEAN_MOTION_DDOT":0},{"OBJECT_NAME":"IRIDIUM 157","OBJECT_ID":"2018-030C","EPOCH":"2026-03-28T21:10:59.400480","MEAN_MOTION":14.34218111,"ECCENTRICITY":0.00021352,"INCLINATION":86.3979,"RA_OF_ASC_NODE":324.0164,"ARG_OF_PERICENTER":86.9321,"MEAN_ANOMALY":273.2119,"EPHEMERIS_TYPE":0,"CLASSIFICATION_TYPE":"U","NORAD_CAT_ID":43251,"ELEMENT_SET_NO":999,"REV_AT_EPOCH":41862,"BSTAR":4.0454794e-5,"MEAN_MOTION_DOT":1.33e-6,"MEAN_MOTION_DDOT":0},{"OBJECT_NAME":"IRIDIUM 140","OBJECT_ID":"2018-030D","EPOCH":"2026-03-28T21:38:23.404128","MEAN_MOTION":14.34218385,"ECCENTRICITY":0.00021055,"INCLINATION":86.398,"RA_OF_ASC_NODE":324.0214,"ARG_OF_PERICENTER":88.0518,"MEAN_ANOMALY":272.0919,"EPHEMERIS_TYPE":0,"CLASSIFICATION_TYPE":"U","NORAD_CAT_ID":43252,"ELEMENT_SET_NO":999,"REV_AT_EPOCH":41868,"BSTAR":5.5112443e-5,"MEAN_MOTION_DOT":1.74e-6,"MEAN_MOTION_DDOT":0},{"OBJECT_NAME":"IRIDIUM 145","OBJECT_ID":"2018-030E","EPOCH":"2026-03-28T21:20:07.561824","MEAN_MOTION":14.34216887,"ECCENTRICITY":0.00022774,"INCLINATION":86.3976,"RA_OF_ASC_NODE":323.9989,"ARG_OF_PERICENTER":93.3062,"MEAN_ANOMALY":266.8395,"EPHEMERIS_TYPE":0,"CLASSIFICATION_TYPE":"U","NORAD_CAT_ID":43253,"ELEMENT_SET_NO":999,"REV_AT_EPOCH":41861,"BSTAR":-1.6476828e-5,"MEAN_MOTION_DOT":-2.6e-7,"MEAN_MOTION_DDOT":0},{"OBJECT_NAME":"IRIDIUM 146","OBJECT_ID":"2018-030F","EPOCH":"2026-03-28T17:31:47.468928","MEAN_MOTION":14.34218275,"ECCENTRICITY":0.0002254,"INCLINATION":86.3979,"RA_OF_ASC_NODE":324.0779,"ARG_OF_PERICENTER":88.459,"MEAN_ANOMALY":271.6864,"EPHEMERIS_TYPE":0,"CLASSIFICATION_TYPE":"U","NORAD_CAT_ID":43254,"ELEMENT_SET_NO":999,"REV_AT_EPOCH":41860,"BSTAR":7.0335e-5,"MEAN_MOTION_DOT":2.17e-6,"MEAN_MOTION_DDOT":0},{"OBJECT_NAME":"IRIDIUM 148","OBJECT_ID":"2018-030G","EPOCH":"2026-03-28T16:46:07.407840","MEAN_MOTION":14.34218155,"ECCENTRICITY":0.00021884,"INCLINATION":86.3981,"RA_OF_ASC_NODE":324.1331,"ARG_OF_PERICENTER":86.2974,"MEAN_ANOMALY":273.8472,"EPHEMERIS_TYPE":0,"CLASSIFICATION_TYPE":"U","NORAD_CAT_ID":43255,"ELEMENT_SET_NO":999,"REV_AT_EPOCH":41863,"BSTAR":3.8557318e-5,"MEAN_MOTION_DOT":1.28e-6,"MEAN_MOTION_DDOT":0},{"OBJECT_NAME":"IRIDIUM 142","OBJECT_ID":"2018-030H","EPOCH":"2026-03-28T17:40:55.519680","MEAN_MOTION":14.34218473,"ECCENTRICITY":0.00023405,"INCLINATION":86.3976,"RA_OF_ASC_NODE":324.0091,"ARG_OF_PERICENTER":91.9987,"MEAN_ANOMALY":268.1477,"EPHEMERIS_TYPE":0,"CLASSIFICATION_TYPE":"U","NORAD_CAT_ID":43256,"ELEMENT_SET_NO":999,"REV_AT_EPOCH":41860,"BSTAR":8.1639677e-5,"MEAN_MOTION_DOT":2.48e-6,"MEAN_MOTION_DDOT":0},{"OBJECT_NAME":"IRIDIUM 150","OBJECT_ID":"2018-030J","EPOCH":"2026-03-28T16:55:15.398976","MEAN_MOTION":14.34218073,"ECCENTRICITY":0.00021077,"INCLINATION":86.398,"RA_OF_ASC_NODE":324.136,"ARG_OF_PERICENTER":88.241,"MEAN_ANOMALY":271.9027,"EPHEMERIS_TYPE":0,"CLASSIFICATION_TYPE":"U","NORAD_CAT_ID":43257,"ELEMENT_SET_NO":999,"REV_AT_EPOCH":41862,"BSTAR":5.8426754e-5,"MEAN_MOTION_DOT":1.83e-6,"MEAN_MOTION_DDOT":0},{"OBJECT_NAME":"IRIDIUM 143","OBJECT_ID":"2018-030K","EPOCH":"2026-03-28T21:29:15.494208","MEAN_MOTION":14.34217324,"ECCENTRICITY":0.00021079,"INCLINATION":86.3982,"RA_OF_ASC_NODE":324.1457,"ARG_OF_PERICENTER":90.9132,"MEAN_ANOMALY":269.2305,"EPHEMERIS_TYPE":0,"CLASSIFICATION_TYPE":"U","NORAD_CAT_ID":43258,"ELEMENT_SET_NO":999,"REV_AT_EPOCH":41858,"BSTAR":1.2964176e-5,"MEAN_MOTION_DOT":5.6e-7,"MEAN_MOTION_DDOT":0},{"OBJECT_NAME":"IRIDIUM 161","OBJECT_ID":"2018-047C","EPOCH":"2026-03-28T19:32:57.174432","MEAN_MOTION":14.43286085,"ECCENTRICITY":0.0002219,"INCLINATION":86.4464,"RA_OF_ASC_NODE":122.0885,"ARG_OF_PERICENTER":84.5443,"MEAN_ANOMALY":275.6011,"EPHEMERIS_TYPE":0,"CLASSIFICATION_TYPE":"U","NORAD_CAT_ID":43478,"ELEMENT_SET_NO":999,"REV_AT_EPOCH":41354,"BSTAR":9.1765177e-5,"MEAN_MOTION_DOT":3.29e-6,"MEAN_MOTION_DDOT":0}]
